COSMOS 2433 (720)       
1 32275U 07052A   22007.91487080 -.00000059  00000+0  00000+0 0  9994
2 32275  66.0816   9.9976 0005239 255.3232 325.5586  2.13104189110543
COSMOS 2432 (719)       
1 32276U 07052B   22007.23486998 -.00000060  00000+0  00000+0 0  9999
2 32276  66.0949  10.1177 0011365 316.0784  51.8490  2.13103439110531
COSMOS 2434 (721)       
1 32393U 07065A   22007.59672244  .00000014  00000+0  00000+0 0  9991
2 32393  64.4137 246.9228 0003933  69.4141 156.3797  2.13103142109244
COSMOS 2436 (723)       
1 32395U 07065C   22007.29430303  .00000015  00000+0  00000+0 0  9999
2 32395  64.4224 246.9886 0016407   3.7580 126.0006  2.13102908109179
COSMOS 2456 (730)       
1 36111U 09070A   22007.91013259  .00000020  00000+0  00000+0 0  9999
2 36111  64.3162 126.5669 0002100 323.9208 310.1402  2.13099119 93919
COSMOS 2457 (733)       
1 36112U 09070B   22007.39210892  .00000021  00000+0  00000+0 0  9995
2 36112  64.2992 126.4645 0006433 156.2044 206.4636  2.13101334 93910
COSMOS 2461 (735)       
1 36401U 10007B   22007.17431088 -.00000060  00000+0  00000+0 0  9990
2 36401  65.9698   8.8832 0019718 358.8966 231.4396  2.13103713 92256
COSMOS 2460 (732)       
1 36402U 10007C   22007.71469704 -.00000059  00000+0  00000+0 0  9995
2 36402  65.9573   8.8178 0002455 267.1914 324.5973  2.13106476 92262
COSMOS 2464 (736)       
1 37139U 10041C   22007.31477800  .00000016  00000+0  00000+0 0  9995
2 37139  64.0125 246.0875 0029814  11.9662 216.9487  2.13100818 88315
COSMOS 2476 (744)       
1 37867U 11064A   22007.77045073  .00000023  00000+0  00000+0 0  9990
2 37867  64.6079 127.8648 0020372 231.6566 199.3409  2.13101810 79260
COSMOS 2477 (745)       
1 37868U 11064B   22007.77746728  .00000023  00000+0  00000+0 0  9996
2 37868  64.6154 127.9279 0017979 232.7137  21.8848  2.13101601 79210
COSMOS 2475 (743)       
1 37869U 11064C   22007.84169925  .00000023  00000+0  00000+0 0  9993
2 37869  64.6225 127.9324 0021415 253.1458   8.6191  2.13101755 79229
COSMOS 2485 (747)       
1 39155U 13019A   22007.65360594  .00000024  00000+0  00000+0 0  9990
2 39155  64.7724 128.2621 0020993 227.6602 158.1432  2.13101790 67736
COSMOS 2492 (754)       
1 39620U 14012A   22007.75744611 -.00000060  00000+0  00000+0 0  9999
2 39620  65.8435   8.5206 0014670 314.7239 185.3464  2.13103221 60687
COSMOS 2500 (755)       
1 40001U 14032A   22007.75592584 -.00000060  00000+0  00000+0 0  9996
2 40001  65.7841   8.3931 0007674 221.1167 136.8645  2.13102292 58891
COSMOS 2501 (702K)      
1 40315U 14075A   22007.91956956  .00000013  00000+0  00000+0 0  9993
2 40315  63.7218 246.7967 0016501 208.4057  82.3542  2.13101346 55300
COSMOS 2514 (751)       
1 41330U 16008A   22007.75674535 -.00000060  00000+0  00000+0 0  9994
2 41330  65.5844   8.1251 0011640 223.7536 318.3963  2.13102820 46060
COSMOS 2516 (753)       
1 41554U 16032A   22007.34633539  .00000014  00000+0  00000+0 0  9991
2 41554  63.9484 247.0489 0012520 217.2385 269.6629  2.13106145 43669
COSMOS 2522 (752)       
1 42939U 17055A   22007.17336017  .00000015  00000+0  00000+0 0  9998
2 42939  64.1816 247.4008 0006306 249.8572 323.7054  2.13102101 33418
COSMOS 2527 (756)       
1 43508U 18053A   22007.33525153  .00000025  00000+0  00000+0 0  9990
2 43508  64.9362 128.2395 0007605 218.1031 151.7672  2.13102503 27719
COSMOS 2529 (757)       
1 43687U 18086A   22007.19010657  .00000014  00000+0  00000+0 0  9994
2 43687  64.3959 247.6734 0008562 276.3715 265.5593  2.13102141 24726
COSMOS 2534 (758)       
1 44299U 19030A   22007.52017730  .00000013  00000+0  00000+0 0  9999
2 44299  64.4683 247.5320 0011885 295.3325 274.4954  2.13101944 20378
COSMOS 2544 (759)       
1 44850U 19088A   22007.63299266  .00000024  00000+0  00000+0 0  9995
2 44850  64.9209 128.0851 0010796 254.0459  27.8275  2.13102290 16143
COSMOS 2545 (760)       
1 45358U 20018A   22007.12422279 -.00000063  00000+0  00000+0 0  9994
2 45358  64.9204   8.8875 0011499 252.4411 208.8441  2.13102715 14094
COSMOS 2547 (705K)      
1 46805U 20075A   22007.57439646  .00000014  00000+0  00000+0 0  9995
2 46805  64.6904 246.9071 0005927 251.5109  47.0566  2.13102866  9342
